0 ORBCOMM FM 34
1 25986U 99065G   13282.45606560  .00000517  00000-0  25019-3 0  7853
2 25986 045.0418 357.8158 0002487 311.6842 048.3791 14.30449777722679
0 ORBCOMM FM 34
1 25986U 99065G   13283.64336229  .00000558  00000-0  26575-3 0  7861
2 25986 045.0416 352.2593 0002439 316.1989 043.8663 14.30450157722849
0 ORBCOMM FM 34
1 25986U 99065G   13286.15763497  .00000708  00000-0  32300-3 0  7883
2 25986 045.0413 340.4922 0002301 326.6916 033.3785 14.30452094723207
0 ORBCOMM FM 34
1 25986U 99065G   13287.48461097  .00000747  00000-0  33792-3 0  7891
2 25986 045.0412 334.2818 0002252 332.4249 027.6477 14.30454642723395
0 ORBCOMM FM 34
1 25986U 99065G   13288.67190323  .00000842  00000-0  37384-3 0  7903
2 25986 045.0411 328.7250 0002190 338.1897 021.8855 14.30458650723563
0 ORBCOMM FM 34
1 25986U 99065G   13289.71951218  .00000708  00000-0  32300-3 0  7912
2 25986 045.0411 323.8219 0002135 343.3885 016.6891 14.30462109723711
0 ORBCOMM FM 34
1 25986U 99065G   13291.11631986  .00000628  00000-0  29238-3 0  7924
2 25986 045.0410 317.2844 0002037 350.6659 009.4149 14.30464850723915
0 ORBCOMM FM 34
1 25986U 99065G   13292.44328350  .00000786  00000-0  35265-3 0  7932
2 25986 045.0409 311.0740 0001988 358.1136 001.9702 14.30466946724109
0 ORBCOMM FM 34
1 25986U 99065G   13293.49088453  .00000961  00000-0  41936-3 0  7943
2 25986 045.0409 306.1709 0001963 003.9876 356.0985 14.30468566724251
0 ORBCOMM FM 34
1 25986U 99065G   13295.09720357  .00001198  00000-0  50930-3 0  7955
2 25986 045.0408 298.6529 0001889 013.9722 346.1176 14.30470865724485
0 ORBCOMM FM 34
1 25986U 99065G   13296.14480191  .00001241  00000-0  52582-3 0  7966
2 25986 045.0408 293.7498 0001819 021.0378 339.0542 14.30473598724637
